NAVSTAR 85 (USA 581)    
1 67588U 26017A   26189.63546814 -.00000030  00000+0  00000+0 0  9995
2 67588  55.1016  87.8945 0021643 259.6539 100.1366  2.00570619432040
NAVSTAR 86 (USA 585)    
1 68791U 26087A   26190.84999216  .00000115  00000+0  00000+0 0  9995
2 68791  54.9614 206.8916 0020527 106.5104 255.9199  2.00572099  1293
