[
    {
        "OBJECT_NAME": "NAVSTAR 85 (USA 581)",
        "OBJECT_ID": "2026-017A",
        "EPOCH": "2026-07-08T15:15:04.447296",
        "MEAN_MOTION": 2.00570619,
        "ECCENTRICITY": 0.0021643,
        "INCLINATION": 55.1016,
        "RA_OF_ASC_NODE": 87.8945,
        "ARG_OF_PERICENTER": 259.6539,
        "MEAN_ANOMALY": 100.1366,
        "EPHEMERIS_TYPE": 0,
        "CLASSIFICATION_TYPE": "U",
        "NORAD_CAT_ID": 67588,
        "ELEMENT_SET_NO": 999,
        "REV_AT_EPOCH": 43204,
        "BSTAR": 0,
        "MEAN_MOTION_DOT": -3e-07,
        "MEAN_MOTION_DDOT": 0
    },
    {
        "OBJECT_NAME": "NAVSTAR 86 (USA 585)",
        "OBJECT_ID": "2026-087A",
        "EPOCH": "2026-07-09T20:23:59.322624",
        "MEAN_MOTION": 2.00572099,
        "ECCENTRICITY": 0.00205273,
        "INCLINATION": 54.9614,
        "RA_OF_ASC_NODE": 206.8916,
        "ARG_OF_PERICENTER": 106.5104,
        "MEAN_ANOMALY": 255.9199,
        "EPHEMERIS_TYPE": 0,
        "CLASSIFICATION_TYPE": "U",
        "NORAD_CAT_ID": 68791,
        "ELEMENT_SET_NO": 999,
        "REV_AT_EPOCH": 129,
        "BSTAR": 0,
        "MEAN_MOTION_DOT": 1.15e-06,
        "MEAN_MOTION_DDOT": 0
    }
]
